0 FENGYUN 1C DEB
1 36238U 99025DVP 13281.39091615  .00000061  00000-0  58470-4 0  2848
2 36238 098.9529 330.8831 0020596 333.2920 084.0540 14.11433677244352
0 FENGYUN 1C DEB
1 36238U 99025DVP 13283.95577667 -.00000077  00000-0 -17685-4 0  2851
2 36238 098.9527 333.4412 0020525 325.7583 156.8229 14.11435568244710
0 FENGYUN 1C DEB
1 36238U 99025DVP 13287.41854293  .00000119  00000-0  90318-4 0  2869
2 36238 098.9518 336.8950 0020436 315.6295 112.0886 14.11434061245208
0 FENGYUN 1C DEB
1 36238U 99025DVP 13289.98082299  .00000150  00000-0  10740-3 0  2878
2 36238 098.9509 339.4503 0020372 308.0351 171.8264 14.11434795245565
0 FENGYUN 1C DEB
1 36238U 99025DVP 13292.37865978 -.00000032  00000-0  72149-5 0  2882
2 36238 098.9505 341.8413 0020341 300.9175 115.9849 14.11437180245906
0 FENGYUN 1C DEB
1 36238U 99025DVP 13294.94373963 -.00000028  00000-0  90975-5 0  2898
2 36238 098.9505 344.3989 0020339 293.3336 189.9514 14.11437353246265
